NORAD_CAT_ID,OBJECT_NAME,OBJECT_TYPE,EPOCH,MEAN_MOTION,ECCENTRICITY,INCLINATION,RA_OF_ASC_NODE,ARG_OF_PERICENTER,MEAN_ANOMALY,BSTAR,MEAN_MOTION_DOT,MEAN_MOTION_DDOT,TLE_LINE0,TLE_LINE1,TLE_LINE2,SEMIMAJOR_AXIS,PERIOD,APOGEE,PERIGEE,DECAYED
51472.0,STARLINK-3415,PAYLOAD,2022-09-01 19:39:39,15.08841166,0.0002029,53.2164,287.143,44.9989,315.1167,2.8677e-05,1.68e-06,0.0,0 STARLINK-3415,1 51472U 22010S   22244.81920222  .00000168  00000-0  28677-4 0  9993,2 51472  53.2164 287.1430 0002029  44.9989 315.1167 15.08841166 32855,6917.877,95.437,541.145,538.3380000000002,0.0
51472.0,STARLINK-3415,PAYLOAD,2022-09-02 08:22:44,15.08829405,0.0001938,53.2166,284.7643,46.3478,313.7674,2.0781e-05,4.3e-07,0.0,0 STARLINK-3415,1 51472U 22010S   22245.34913183  .00000043  00000-0  20781-4 0  9990,2 51472  53.2166 284.7643 0001938  46.3478 313.7674 15.08829405 32931,6917.913000000001,95.438,541.118,538.437,0.0
51472.0,STARLINK-3415,PAYLOAD,2022-09-02 13:08:54,15.08826534,0.0001992,53.2161,283.8716,42.9749,317.1398,-6.8526e-06,-3.97e-06,0.0,0 STARLINK-3415,1 51472U 22010S   22245.54785604 -.00000397  00000-0 -68526-5 0  9991,2 51472  53.2161 283.8716 0001992  42.9749 317.1398 15.08826534 33460,6917.922,95.438,541.165,538.408,0.0
51472.0,STARLINK-3415,PAYLOAD,2022-09-03 11:24:18,15.08834315,0.0002044999999999,53.216,279.708,42.8271,317.288,1.3338999999999998e-06,-2.67e-06,0.0,0 STARLINK-3415,1 51472U 22010S   22246.47521636 -.00000267  00000-0  13339-5 0  9994,2 51472  53.2160 279.7080 0002045  42.8271 317.2880 15.08834315 33100,6917.898,95.438,541.177,538.3480000000002,0.0
51472.0,STARLINK-3415,PAYLOAD,2022-09-03 14:35:04,15.08836463,0.0002048,53.2162,279.1135,43.5772,316.5382,4.5041000000000015e-06,-2.17e-06,0.0,0 STARLINK-3415,1 51472U 22010S   22246.60769534 -.00000217  00000-0  45041-5 0  9990,2 51472  53.2162 279.1135 0002048  43.5772 316.5382 15.08836463 33121,6917.891,95.438,541.173,538.339,0.0
51472.0,STARLINK-3415,PAYLOAD,2022-09-04 11:15:05,15.08840542,0.0002041999999999,53.2161,275.2479,43.9498,316.1656,0.00015252,2.14e-05,0.0,0 STARLINK-3415,1 51472U 22010S   22247.46880985  .00002140  00000-0  15252-3 0  9994,2 51472  53.2161 275.2479 0002042  43.9498 316.1656 15.08840542 33753,6917.879,95.438,541.156,538.331,0.0
51472.0,STARLINK-3415,PAYLOAD,2022-09-05 11:05:51,15.08848886,0.0002016,53.2167,270.788,38.8902,321.2234,0.00013318,1.833e-05,0.0,0 STARLINK-3415,1 51472U 22010S   22248.46240212  .00001833  00000-0  13318-3 0  9997,2 51472  53.2167 270.7880 0002016  38.8902 321.2234 15.08848886 33409,6917.853,95.437,541.113,538.3240000000002,0.0
51472.0,STARLINK-3415,PAYLOAD,2022-09-06 04:35:06,15.08845861,0.0002034,53.2163,267.5162,47.3243,312.7921,2.835e-06,-2.43e-06,0.0,0 STARLINK-3415,1 51472U 22010S   22249.19104623 -.00000243  00000-0  28350-5 0  9992,2 51472  53.2163 267.5162 0002034  47.3243 312.7921 15.08845861 34011,6917.861999999999,95.437,541.135,538.32,0.0
51472.0,STARLINK-3415,PAYLOAD,2022-09-06 07:45:53,15.08839708,0.0002038,53.2162,266.923,40.309,319.8053,-4.591e-05,-1.019e-05,0.0,0 STARLINK-3415,1 51472U 22010S   22249.32353083 -.00001019  00000-0 -45910-4 0  9996,2 51472  53.2162 266.9230 0002038  40.3090 319.8053 15.08839708 33539,6917.880999999999,95.438,541.156,538.336,0.0
51472.0,STARLINK-3415,PAYLOAD,2022-09-06 12:32:02,15.08841132,0.0002069,53.2157,266.0309,39.6963,320.418,-3.3659000000000004e-05,-8.24e-06,0.0,0 STARLINK-3415,1 51472U 22010S   22249.52224913 -.00000824  00000-0 -33659-4 0  9997,2 51472  53.2157 266.0309 0002069  39.6963 320.4180 15.08841132 33561,6917.877,95.437,541.173,538.311,0.0
51472.0,STARLINK-3415,PAYLOAD,2022-09-07 07:36:39,15.08845372,0.0002011,53.2158,262.461,42.9167,317.1982,-2.0738e-05,-6.18e-06,0.0,0 STARLINK-3415,1 51472U 22010S   22250.31712306 -.00000618  00000-0 -20738-4 0  9999,2 51472  53.2158 262.4610 0002011  42.9167 317.1982 15.08845372 33683,6917.864000000001,95.437,541.12,538.3380000000002,0.0
51472.0,STARLINK-3415,PAYLOAD,2022-09-08 04:16:41,15.088320499999998,0.0001824,53.2151,258.5935,54.7492,305.367,-3.9423e-06,-3.51e-06,0.0,0 STARLINK-3415,1 51472U 22010S   22251.17825405 -.00000351  00000-0 -39423-5 0  9995,2 51472  53.2151 258.5935 0001824  54.7492 305.3670 15.08832050 34318,6917.905,95.438,541.0319999999998,538.508,0.0
51472.0,STARLINK-3415,PAYLOAD,2022-09-08 10:38:13,15.08830539,0.0002008,53.2159,257.4057,41.4439,318.6705,4.2833e-05,3.93e-06,0.0,0 STARLINK-3415,1 51472U 22010S   22251.44321583  .00000393  00000-0  42833-4 0  9995,2 51472  53.2159 257.4057 0002008  41.4439 318.6705 15.08830539 33852,6917.909000000002,95.438,541.163,538.385,0.0
51472.0,STARLINK-3415,PAYLOAD,2022-09-09 02:32:06,15.088255800000002,0.0002054,53.2161,254.4321,45.1638,314.9521,-6.2484e-05,-1.282e-05,0.0,0 STARLINK-3415,1 51472U 22010S   22252.10562873 -.00001282  00000-0 -62484-4 0  9992,2 51472  53.2161 254.4321 0002054  45.1638 314.9521 15.08825580 34451,6917.924,95.438,541.21,538.369,0.0
51472.0,STARLINK-3415,PAYLOAD,2022-09-09 08:53:39,15.08825925,0.0002064,53.2164,253.243,45.3569,314.7592,-5.054800000000001e-05,-1.092e-05,0.0,0 STARLINK-3415,1 51472U 22010S   22252.37059052 -.00001092  00000-0 -50548-4 0  9998,2 51472  53.2164 253.2430 0002064  45.3569 314.7592 15.08825925 33995,6917.9230000000025,95.438,541.216,538.361,0.0
51472.0,STARLINK-3415,PAYLOAD,2022-09-10 03:58:16,15.08831705,0.0001999,53.2166,249.6738,51.5719,308.5453,6.3911e-05,7.29e-06,0.0,0 STARLINK-3415,1 51472U 22010S   22253.16547073  .00000729  00000-0  63911-4 0  9993,2 51472  53.2166 249.6738 0001999  51.5719 308.5453 15.08831705 34619,6917.906,95.438,541.154,538.388,0.0
51472.0,STARLINK-3415,PAYLOAD,2022-09-10 08:44:26,15.08831922,0.0002110999999999,53.2164,248.7824,44.9742,315.1421,7.285399999999999e-05,8.71e-06,0.0,0 STARLINK-3415,1 51472U 22010S   22253.36419177  .00000871  00000-0  72854-4 0  9992,2 51472  53.2164 248.7824 0002111  44.9742 315.1421 15.08831922 34140,6917.905,95.438,541.23,538.31,0.0
51472.0,STARLINK-3415,PAYLOAD,2022-09-11 03:49:03,15.08838842,0.0002134999999999,53.2162,245.2137,43.7787,316.3374,0.00018528,2.662e-05,0.0,0 STARLINK-3415,1 51472U 22010S   22254.15906777  .00002662  00000-0  18528-3 0  9994,2 51472  53.2162 245.2137 0002135  43.7787 316.3374 15.08838842 34765,6917.884,95.438,541.226,538.2719999999998,0.0
51472.0,STARLINK-3415,PAYLOAD,2022-09-11 08:35:12,15.08842886,0.0002145999999999,53.2161,244.3215,44.057,316.0593,0.00022008,3.216e-05,0.0,0 STARLINK-3415,1 51472U 22010S   22254.35778576  .00003216  00000-0  22008-3 0  9994,2 51472  53.2161 244.3215 0002146  44.0570 316.0593 15.08842886 34298,6917.871999999999,95.437,541.221,538.252,0.0
51472.0,STARLINK-3415,PAYLOAD,2022-09-12 03:39:49,15.08856767,0.0002162,53.2161,240.7524,44.7363,315.3803,0.00020457,2.97e-05,0.0,0 STARLINK-3415,1 51472U 22010S   22255.15265548  .00002970  00000-0  20457-3 0  9995,2 51472  53.2161 240.7524 0002162  44.7363 315.3803 15.08856767 34914,6917.829000000002,95.436,541.19,538.1990000000002,0.0
51472.0,STARLINK-3415,PAYLOAD,2022-09-12 08:25:59,15.08850148,0.0002108,53.2153,239.8604,45.1407,314.9756,0.00011218,1.498e-05,0.0,0 STARLINK-3415,1 51472U 22010S   22255.35137960  .00001498  00000-0  11218-3 0  9992,2 51472  53.2153 239.8604 0002108  45.1407 314.9756 15.08850148 34949,6917.849,95.437,541.173,538.256,0.0
51472.0,STARLINK-3415,PAYLOAD,2022-09-12 16:22:54,15.08852523,0.0002136,53.2151,238.3733,44.2799,315.8363,0.00011926,1.611e-05,0.0,0 STARLINK-3415,1 51472U 22010S   22255.68257629  .00001611  00000-0  11926-3 0  9996,2 51472  53.2151 238.3733 0002136  44.2799 315.8363 15.08852523 34492,6917.842,95.437,541.185,538.229,0.0
51472.0,STARLINK-3415,PAYLOAD,2022-09-13 08:16:45,15.08851139,0.0002129,53.2155,235.3998,46.1657,313.9511,1.4006e-06,-2.66e-06,0.0,0 STARLINK-3415,1 51472U 22010S   22256.34497266 -.00000266  00000-0  14006-5 0  9993,2 51472  53.2155 235.3998 0002129  46.1657 313.9511 15.08851139 34599,6917.846,95.437,541.184,538.239,0.0
51472.0,STARLINK-3415,PAYLOAD,2022-09-13 16:13:41,15.08853101,0.0002176,53.2161,233.9133,45.3192,314.7977,-4.2963e-05,-9.72e-06,0.0,0 STARLINK-3415,1 51472U 22010S   22256.67617237 -.00000972  00000-0 -42963-4 0  9998,2 51472  53.2161 233.9133 0002176  45.3192 314.7977 15.08853101 34640,6917.84,95.437,541.211,538.2,0.0
51472.0,STARLINK-3415,PAYLOAD,2022-09-14 04:56:47,15.08834616,0.0002014,53.2161,231.5347,42.94600000000001,317.1689,-0.00010469,-1.954e-05,0.0,0 STARLINK-3415,1 51472U 22010S   22257.20610227 -.00001954  00000-0 -10469-3 0  9996,2 51472  53.2161 231.5347 0002014  42.9460 317.1689 15.08834616 35225,6917.897,95.438,541.155,538.369,0.0
51472.0,STARLINK-3415,PAYLOAD,2022-09-14 09:42:56,15.08836711,0.0001973,53.2159,230.6424,39.8979,320.2158,-0.00011012,-2.04e-05,0.0,0 STARLINK-3415,1 51472U 22010S   22257.40482093 -.00002040  00000-0 -11012-3 0  9998,2 51472  53.2159 230.6424 0001973  39.8979 320.2158 15.08836711 34752,6917.89,95.438,541.12,538.391,0.0
51472.0,STARLINK-3415,PAYLOAD,2022-09-15 04:47:33,15.08844037,0.0002089,53.216,227.0739,42.7251,317.3904,7.5851e-05,9.19e-06,0.0,0 STARLINK-3415,1 51472U 22010S   22258.19969310  .00000919  00000-0  75851-4 0  9990,2 51472  53.2160 227.0739 0002089  42.7251 317.3904 15.08844037 35373,6917.868,95.437,541.178,538.288,0.0
51472.0,STARLINK-3415,PAYLOAD,2022-09-15 07:58:19,15.0884628,0.0002093,53.216,226.4792,43.5807,316.535,9.9027e-05,1.288e-05,0.0,0 STARLINK-3415,1 51472U 22010S   22258.33217138  .00001288  00000-0  99027-4 0  9991,2 51472  53.2160 226.4792 0002093  43.5807 316.5350 15.08846280 34890,6917.861,95.437,541.174,538.278,0.0
51472.0,STARLINK-3415,PAYLOAD,2022-09-16 07:49:05,15.08852984,0.0001959,53.216,222.019,39.8161,320.2975,0.00020279,2.942e-05,0.0,0 STARLINK-3415,1 51472U 22010S   22259.32576354  .00002942  00000-0  20279-3 0  9999,2 51472  53.2160 222.0190 0001959  39.8161 320.2975 15.08852984 35541,6917.840999999999,95.437,541.061,538.35,0.0
